DUBAISAT-1              
1 35682U 09041B   26202.34354578  .00000553  00000+0  89417-4 0  9994
2 35682  98.0092 335.2356 0009475 327.6007  32.4619 14.75172952910133
OCEANSAT-2              
1 35931U 09051A   26203.22775502  .00000135  00000+0  11779-3 0  9995
2 35931  98.2327 186.5808 0017750 133.3994 226.8654 13.99656722884230
WORLDVIEW-2 (WV-2)      
1 35946U 09055A   26203.30464285  .00000057  00000+0  33439-4 0  9998
2 35946  98.4750 276.2760 0005523 113.0033 247.1737 14.37908326880693
SMOS                    
1 36036U 09059A   26203.14613619  .00000220  00000+0  84032-4 0  9999
2 36036  98.4432  29.9689 0001214  98.4195 261.7131 14.39738960878483
YAOGAN-7                
1 36110U 09069A   26203.15670074  .00000337  00000+0  53797-4 0  9995
2 36110  98.0024  88.8003 0023187 287.7604  72.1076 14.78039978894794
TANDEM-X                
1 36605U 10030A   26202.44323971  .00000080  00000+0  69995-5 0  9999
2 36605  97.4466 209.6630 0001785 100.1073 260.0363 15.19148789891840
CARTOSAT-2B             
1 36795U 10035A   26203.25780899  .00000477  00000+0  72135-4 0  9999
2 36795  97.9933 253.5791 0012748  80.0990 280.1660 14.78656713865035
YAOGAN-10               
1 36834U 10038A   26203.32401450  .00001824  00000+0  21785-3 0  9998
2 36834  97.8976 226.4487 0001672  85.1318  36.8128 14.85445987862422
COSMO-SKYMED 4          
1 37216U 10060A   26203.27920385  .00000658  00000+0  89191-4 0  9995
2 37216  97.8906  26.3717 0001567  87.4930 272.6462 14.82156397849765
RESOURCESAT-2           
1 37387U 11015A   26203.28044769  .00000033  00000+0  35126-4 0  9995
2 37387  98.7626 270.4764 0011946 151.6081 208.5750 14.21600647791163
HAIYANG-2A              
1 37781U 11043A   26203.28849058 -.00000006  00000+0  40570-4 0  9998
2 37781  99.3412 205.1532 0001476  19.4546 340.6659 13.73102367751471
RASAT                   
1 37791U 11044D   26203.27823677  .00000144  00000+0  33382-4 0  9993
2 37791  98.0575 294.1403 0021965  81.8246 352.1023 14.68196591798334
SRMSAT                  
1 37841U 11058D   26202.37626957  .00000342  00000+0  41913-4 0  9995
2 37841  19.9702 212.5309 0011588 219.4908 265.6668 14.11581900762656
PLEIADES 1A             
1 38012U 11076F   26203.25290269  .00000000  00000+0  97382-5 0  9990
2 38012  98.1959 277.8822 0001580  78.9474 358.3695 14.58548706777105
ZIYUAN 1-02C (ZY 1-02C) 
1 38038U 11079A   26203.28306116  .00000097  00000+0  46005-4 0  9994
2 38038  98.4051 269.8555 0006124 191.2266 256.3174 14.38238971764259
ARIRANG-3 (KOMPSAT-3)   
1 38338U 12025B   26203.27409670  .00000358  00000+0  80379-4 0  9999
2 38338  98.1190 160.1332 0005759  19.3939 340.7481 14.62233527756472
EXACTVIEW-1 (ADS-1B)    
1 38709U 12039C   26202.78679862  .00000081  00000+0  54405-4 0  9997
2 38709  98.9809 320.9639 0011872  74.2014 286.0473 14.24993565727634
SPOT 6                  
1 38755U 12047A   26203.32220669  .00000090  00000+0  29245-4 0  9999
2 38755  98.2099 270.2164 0001130  94.9866 265.1462 14.58540927738173
PLEIADES 1B             
1 39019U 12068A   26203.27222314  .00000095  00000+0  30174-4 0  9997
2 39019  98.1929 277.8381 0001459  79.2508 280.8856 14.58536527725960
GOKTURK 2               
1 39030U 12073A   26203.27536398 -.00000007  00000+0  58216-5 0  9998
2 39030  97.6818  38.9464 0001112 106.1162 254.0171 14.75571025729681
LANDSAT 8               
1 39084U 13008A   26203.25242363  .00000219  00000+0  58693-4 0  9992
2 39084  98.2284 272.9681 0001331  91.7627 268.3724 14.57097583703005
SARAL                   
1 39086U 13009A   26203.23502320  .00000053  00000+0  35460-4 0  9998
2 39086  98.5560  29.3595 0002110 151.0491 209.0810 14.32897009700627
GAOFEN-1                
1 39150U 13018A   26203.30226352  .00000490  00000+0  77415-4 0  9997
2 39150  97.9076 274.6533 0017708 148.9159 211.3103 14.76523956713424
VNREDSAT 1              
1 39160U 13021B   26203.26674413  .00000396  00000+0  82591-4 0  9998
2 39160  97.9058 255.3333 0001520  81.9177 278.2199 14.64888508705422
ARIRANG-5 (KOMPSAT-5)   
1 39227U 13042A   26203.28250601  .00000044  00000+0  74400-5 0  9997
2 39227  97.6203  29.4899 0004502  36.7996 323.3539 15.04499638709131
SKYSAT-A                
1 39418U 13066C   26203.10948225  .00002234  00000+0  12901-3 0  9991
2 39418  97.3796 251.3935 0021116 188.8512 171.2351 15.13142103693762
DUBAISAT-2              
1 39419U 13066D   26203.25148487  .00003992  00000+0  24658-3 0  9994
2 39419  97.4592 192.4862 0009267 273.7264  86.2906 15.10407235691680
GPM-CORE                
1 39574U 14009C   26203.23078766  .00005913  00000+0  12941-3 0  9991
2 39574  64.9698 190.7050 0010861 263.9506  96.0397 15.45101869703229
SENTINEL-1A             
1 39634U 14016A   26203.27042273  .00000092  00000+0  29255-4 0  9994
2 39634  98.1700 210.2876 0001450  83.4719 276.6645 14.59173601655133
KAZEOSAT 1              
1 39731U 14024A   26203.26959574 -.00000083  00000+0 -12370-4 0  9993
2 39731  98.3188 274.8409 0001209  90.2798 269.8530 14.42038521643616
