OBJECT_NAME,OBJECT_ID,EPOCH,MEAN_MOTION,ECCENTRICITY,INCLINATION,RA_OF_ASC_NODE,ARG_OF_PERICENTER,MEAN_ANOMALY,EPHEMERIS_TYPE,CLASSIFICATION_TYPE,NORAD_CAT_ID,ELEMENT_SET_NO,REV_AT_EPOCH,BSTAR,MEAN_MOTION_DOT,MEAN_MOTION_DDOT
DUBAISAT-1,2009-041B,2026-07-21T08:14:42.355392,14.75172952,.00094756,98.0092,335.2356,327.6007,32.4619,0,U,35682,999,91013,.89416929E-4,.553E-5,0
OCEANSAT-2,2009-051A,2026-07-22T05:27:58.033728,13.99656722,.00177509,98.2327,186.5808,133.3994,226.8654,0,U,35931,999,88423,.11778972E-3,.135E-5,0
WORLDVIEW-2 (WV-2),2009-055A,2026-07-22T07:18:41.142240,14.37908326,.0005523,98.4750,276.2760,113.0033,247.1737,0,U,35946,999,88069,.33439366E-4,.57E-6,0
SMOS,2009-059A,2026-07-22T03:30:26.166816,14.39738960,.00012146,98.4432,29.9689,98.4195,261.7131,0,U,36036,999,87848,.84031712E-4,.22E-5,0
YAOGAN-7,2009-069A,2026-07-22T03:45:38.943936,14.78039978,.00231873,98.0024,88.8003,287.7604,72.1076,0,U,36110,999,89479,.53797325E-4,.337E-5,0
TANDEM-X,2010-030A,2026-07-21T10:38:15.910944,15.19148789,.00017851,97.4466,209.6630,100.1073,260.0363,0,U,36605,999,89184,.6999469E-5,.8E-6,0
CARTOSAT-2B,2010-035A,2026-07-22T06:11:14.696736,14.78656713,.00127487,97.9933,253.5791,80.0990,280.1660,0,U,36795,999,86503,.72134867E-4,.477E-5,0
YAOGAN-10,2010-038A,2026-07-22T07:46:34.852800,14.85445987,.00016722,97.8976,226.4487,85.1318,36.8128,0,U,36834,999,86242,.217847E-3,.1824E-4,0
COSMO-SKYMED 4,2010-060A,2026-07-22T06:42:03.212640,14.82156397,.00015671,97.8906,26.3717,87.4930,272.6462,0,U,37216,999,84976,.89191283E-4,.658E-5,0
RESOURCESAT-2,2011-015A,2026-07-22T06:43:50.680416,14.21600647,.00119464,98.7626,270.4764,151.6081,208.5750,0,U,37387,999,79116,.35125849E-4,.33E-6,0
HAIYANG-2A,2011-043A,2026-07-22T06:55:25.586112,13.73102367,.00014763,99.3412,205.1532,19.4546,340.6659,0,U,37781,999,75147,.40569833E-4,-.6E-7,0
RASAT,2011-044D,2026-07-22T06:40:39.656928,14.68196591,.00219652,98.0575,294.1403,81.8246,352.1023,0,U,37791,999,79833,.33381545E-4,.144E-5,0
SRMSAT,2011-058D,2026-07-21T09:01:49.690848,14.11581900,.00115886,19.9702,212.5309,219.4908,265.6668,0,U,37841,999,76265,.41912991E-4,.342E-5,0
PLEIADES 1A,2011-076F,2026-07-22T06:04:10.792416,14.58548706,.00015807,98.1959,277.8822,78.9474,358.3695,0,U,38012,999,77710,.9738196E-5,0,0
ZIYUAN 1-02C (ZY 1-02C),2011-079A,2026-07-22T06:47:36.484224,14.38238971,.00061244,98.4051,269.8555,191.2266,256.3174,0,U,38038,999,76425,.46004737E-4,.97E-6,0
ARIRANG-3 (KOMPSAT-3),2012-025B,2026-07-22T06:34:41.954880,14.62233527,.00057591,98.1190,160.1332,19.3939,340.7481,0,U,38338,999,75647,.80378659E-4,.358E-5,0
EXACTVIEW-1 (ADS-1B),2012-039C,2026-07-21T18:52:59.400768,14.24993565,.00118725,98.9809,320.9639,74.2014,286.0473,0,U,38709,999,72763,.544052E-4,.81E-6,0
SPOT 6,2012-047A,2026-07-22T07:43:58.658016,14.58540927,.000113,98.2099,270.2164,94.9866,265.1462,0,U,38755,999,73817,.29245456E-4,.9E-6,0
PLEIADES 1B,2012-068A,2026-07-22T06:32:00.079296,14.58536527,.00014592,98.1929,277.8381,79.2508,280.8856,0,U,39019,999,72596,.30174166E-4,.95E-6,0
GOKTURK 2,2012-073A,2026-07-22T06:36:31.447872,14.75571025,.00011129,97.6818,38.9464,106.1162,254.0171,0,U,39030,999,72968,.582162E-5,-.7E-7,0
LANDSAT 8,2013-008A,2026-07-22T06:03:29.401632,14.57097583,.00013317,98.2284,272.9681,91.7627,268.3724,0,U,39084,999,70300,.58692847E-4,.219E-5,0
SARAL,2013-009A,2026-07-22T05:38:26.004480,14.32897009,.00021106,98.5560,29.3595,151.0491,209.0810,0,U,39086,999,70062,.35460185E-4,.53E-6,0
GAOFEN-1,2013-018A,2026-07-22T07:15:15.568128,14.76523956,.00177086,97.9076,274.6533,148.9159,211.3103,0,U,39150,999,71342,.77414573E-4,.49E-5,0
VNREDSAT 1,2013-021B,2026-07-22T06:24:06.692832,14.64888508,.00015203,97.9058,255.3333,81.9177,278.2199,0,U,39160,999,70542,.82590688E-4,.396E-5,0
ARIRANG-5 (KOMPSAT-5),2013-042A,2026-07-22T06:46:48.519264,15.04499638,.00045025,97.6203,29.4899,36.7996,323.3539,0,U,39227,999,70913,.7439973E-5,.44E-6,0
SKYSAT-A,2013-066C,2026-07-22T02:37:39.266400,15.13142103,.00211169,97.3796,251.3935,188.8512,171.2351,0,U,39418,999,69376,.12901174E-3,.2234E-4,0
DUBAISAT-2,2013-066D,2026-07-22T06:02:08.292768,15.10407235,.00092678,97.4592,192.4862,273.7264,86.2906,0,U,39419,999,69168,.24657533E-3,.3992E-4,0
GPM-CORE,2014-009C,2026-07-22T05:32:20.053824,15.45101869,.00108612,64.9698,190.7050,263.9506,96.0397,0,U,39574,999,70322,.12940693E-3,.5913E-4,0
SENTINEL-1A,2014-016A,2026-07-22T06:29:24.523872,14.59173601,.00014501,98.1700,210.2876,83.4719,276.6645,0,U,39634,999,65513,.29254924E-4,.92E-6,0
KAZEOSAT 1,2014-024A,2026-07-22T06:28:13.071936,14.42038521,.00012099,98.3188,274.8409,90.2798,269.8530,0,U,39731,999,64361,-.12370092E-4,-.83E-6,0
